{"fetched_at":"2026-03-29T16:36:15Z","count":15609,"tles":[{"name":"STARLINK-36079","line1":"1 66897U 25283V   26087.84150350  .00019239  00000+0  66002-3 0  9995","line2":"2 66897  53.1592 295.4049 0000723  91.0863 269.0221 15.30199269 18764","category":"Starlink"}]}