{
  "norad_id": 66897,
  "name": "STARLINK-36079",
  "history": [
    {
      "epoch": "2026-03-28T20:11:45.902400",
      "apogee_km": 475.71316076810854,
      "perigee_km": 474.72134334075054,
      "latitude_deg": -6.881055196573525,
      "longitude_deg": -129.51566400006413,
      "semi_major_axis_km": 6853.354252054429,
      "eccentricity": 7.236e-05,
      "inclination_deg": 53.1592,
      "raan_deg": 295.4049,
      "arg_perigee_deg": 91.0863,
      "mean_anomaly_deg": 269.0221,
      "mean_motion_rev_day": 15.30199269
    }
  ]
}